HAWK-10B                
1 60545U 24149CF  26165.16061120  .00002031  00000+0  18370-3 0  9994
2 60545  97.6816 240.4821 0007021 101.1871 259.0140 14.96506814 99530
ICEYE-X39               
1 60546U 24149CG  26165.47514955  .00003197  00000+0  26263-3 0  9992
2 60546  97.6767 242.5354 0004984 125.7268 234.4420 14.99881546 99716
UMBRA-10                
1 60547U 24149CH  26165.29845924  .00015596  00000+0  77016-3 0  9994
2 60547  97.6987 252.4818 0000780  72.0316 288.1003 15.17967789100298
ICEYE-X33               
1 60548U 24149CJ  26165.16903681  .00004659  00000+0  37024-3 0  9999
2 60548  97.7275 244.3258 0001611 100.4108 259.7297 15.00936114 99754
ICEYE-X40               
1 60549U 24149CK  26165.16298124  .00002410  00000+0  20933-3 0  9993
2 60549  97.6814 241.7069 0006614  90.7141 269.4839 14.97929015 99623
SATELIOT_1              
1 60550U 24149CL  26165.22121241  .00002557  00000+0  22107-3 0  9994
2 60550  97.6747 241.1678 0008371  89.2729 270.9452 14.98054855 99627
BRO-14                  
1 60551U 24149CM  26165.18577698  .00000649  00000+0  62647-4 0  9995
2 60551  97.6876 241.0175 0008105 104.2682 255.9440 14.96172072 99544
SATELIOT_3              
1 60552U 24149CN  26165.46412668  .00001730  00000+0  15126-3 0  9993
2 60552  97.6820 242.1968 0005931  92.5426 267.6476 14.98044230 99674
BRO-15                  
1 60553U 24149CP  26165.16820035  .00001241  00000+0  11519-3 0  9991
2 60553  97.6808 240.6040 0009589  96.9395 263.2917 14.96150646 99557
UM5-RIBAT               
1 60554U 24149CQ  26165.47241646  .00002934  00000+0  23411-3 0  9995
2 60554  97.6642 243.3093 0003657  66.0041 294.1565 15.01062506 99789
UM5-EOSAT               
1 60555U 24149CR  26165.17305672  .00004114  00000+0  32244-3 0  9999
2 60555  97.6703 243.9442 0008712 123.6371 236.5686 15.01507437 99764
LASARSAT                
1 62391U 24247Q   26164.61689910  .00032689  00000+0  65515-3 0  9991
2 62391  44.9751 282.2745 0008375 311.5212  48.4959 15.46168743 82768
CROCUBE                 
1 62394U 24247T   26165.45792703  .00037784  00000+0  70687-3 0  9999
2 62394  44.9722 274.9271 0008185 319.8602  40.1684 15.48097548 82922
TEVEL2-4                
1 63213U 25052D   26165.24787499  .00018966  00000+0  56859-3 0  9994
2 63213  97.3916  61.6351 0004817 109.6731 250.5032 15.34521114 69662
TEVEL2-5                
1 63214U 25052E   26165.46369514  .00018255  00000+0  55029-3 0  9992
2 63214  97.3913  61.8001 0004726 110.0709 250.1043 15.34355748 69693
TEVEL2-6                
1 63215U 25052F   26165.28031027  .00018628  00000+0  56220-3 0  9996
2 63215  97.3919  61.6008 0004644 110.4903 249.6839 15.34313968 69665
TEVEL2-1                
1 63217U 25052H   26165.43880990  .00017394  00000+0  53395-3 0  9995
2 63217  97.3887  61.3872 0004657 119.1952 240.9757 15.33788799 69672
TEVEL2-3                
1 63218U 25052J   26165.23783726  .00017827  00000+0  54634-3 0  9991
2 63218  97.3893  61.2078 0004602 119.3991 240.7711 15.33837086 69641
TEVEL2-2                
1 63219U 25052K   26165.43913898  .00017454  00000+0  53565-3 0  9997
2 63219  97.3889  61.3900 0004650 119.9799 240.1905 15.33796885 69670
TEVEL2-9                
1 63237U 25052AD  26165.28236823  .00016318  00000+0  53265-3 0  9991
2 63237  97.3950  60.6144 0007557 138.8374 221.3439 15.31820596 69587
TEVEL2-7                
1 63238U 25052AE  26165.51872906  .00015043  00000+0  49572-3 0  9996
2 63238  97.3954  60.7678 0007669 138.7372 221.4450 15.31532651 69616
TEVEL2-8                
1 63239U 25052AF  26165.46161653  .00015949  00000+0  52562-3 0  9999
2 63239  97.3953  60.6877 0007686 139.5843 220.5971 15.31515493 69609
FORESAIL-1 PRIME        
1 66778U 25276DS  26165.16336876  .00004967  00000+0  24279-3 0  9998
2 66778  97.4203 238.4891 0003912 109.6955 250.4701 15.18676939 29944
